ORBCOMM FM24            
1 25478U 98053D   25364.17282034  .00001888  00000+0  65563-3 0  9990
2 25478  45.0084  59.4454 0002420 190.7510 169.3287 14.38705396425666
ORBCOMM FM25            
1 25479U 98053E   25364.14825054  .00002147  00000+0  73949-3 0  9999
2 25479  45.0076  57.8635 0004623 175.8726 184.2161 14.38674913425950
ORBCOMM FM26            
1 25480U 98053F   25364.15454767  .00001651  00000+0  59164-3 0  9993
2 25480  45.0074  55.7634 0006841 183.5628 176.5173 14.37638485425845
ORBCOMM FM27            
1 25481U 98053G   25364.20089537  .00002060  00000+0  71112-3 0  9991
2 25481  45.0060  57.7407 0002200 228.9611 131.1047 14.38710289425898
ORBCOMM FM28            
1 25482U 98053H   25364.28626812  .00001830  00000+0  63518-3 0  9998
2 25482  45.0068 354.5969 0005282 229.3483 130.6907 14.38832932426590
ORBCOMM FM30            
1 25980U 99065A   25364.05259292  .00001183  00000+0  43576-3 0  9997
2 25980  45.0304 242.2908 0006326 279.6988  80.3146 14.37801215362639
ORBCOMM FM31            
1 25981U 99065B   25364.03508991  .00001106  00000+0  41103-3 0  9998
2 25981  45.0215 235.8243 0004141 309.5047  50.5435 14.37727642362184
ORBCOMM FM32            
1 25982U 99065C   25364.07176627  .00001233  00000+0  46157-3 0  9995
2 25982  45.0148 253.5379 0006627 301.1467  58.8731 14.36787586362768
